{
"type": "FeatureCollection",
"name": "lut_tawar_roi",
"crs": { "type": "name", "properties": { "name": "urn:ogc:def:crs:OGC:1.3:CRS84" } },
"features": [
{"type":"Feature","properties":{"id":0},"geometry":{"type":"MultiPolygon","coordinates":[[[[96.871396335956973,4.640574454329181],[96.872310633988647,4.639994618650491],[96.872310633988647,4.639994618650491],[96.872310633988647,4.639994618650491],[96.874946461656904,4.640627217290871],[96.878742053499181,4.640732650397601],[96.881061581847234,4.639467453116842],[96.882010479807803,4.639678319330302],[96.883908275728942,4.639045720689922],[96.88580607165008,4.639151153796652],[96.887282135144304,4.639362020010112],[96.890550561452926,4.639151153796652],[96.893818987761549,4.637991389622623],[96.895295051255772,4.638518555156272],[96.89761457960384,4.638096822729353],[96.901304738339377,4.639889185543762],[96.903835132900895,4.639572886223572],[96.905732928822033,4.639889185543762],[96.906260094355687,4.640310917970681],[96.906998126102792,4.639889185543762],[96.908263323383551,4.639256586903382],[96.909106788237395,4.639783752437031],[96.913429545613326,4.638834854476462],[96.921337028618069,4.637147924768784],[96.92587065220745,4.635777294381294],[96.929982543369917,4.635039262634185],[96.93240750482471,4.633984931566886],[96.934410733852573,4.633668632246696],[96.935992230453522,4.633879498460156],[96.937784593267935,4.632614301179397],[96.940947586469832,4.632087135645747],[96.942001917537127,4.629662174190959],[96.943899713458265,4.630611072151528],[96.945797509379403,4.62955674108423],[96.946957273553437,4.62976760729769],[96.950014833648595,4.6294513079775],[96.951280030929354,4.62860784312366],[96.951596330249544,4.627342645842901],[96.953072393743767,4.626604614095791],[96.955919087625475,4.626288314775602],[96.958133182866803,4.625761149241953],[96.959409347404446,4.624651530995771],[96.96139815453553,4.624353209926108],[96.96139815453553,4.624353209926108],[96.962193677387958,4.623756567786783],[96.964381365232157,4.62296104493435],[96.964978007371485,4.621568879942591],[96.967364575928784,4.621369999229482],[96.967861777711548,4.620972237803265],[96.968358979494326,4.619778953524615],[96.971441630547503,4.618784549959073],[96.973132116608923,4.617193504254206],[96.973132116608923,4.617193504254206],[96.974822602670343,4.615105256766567],[96.976612529088328,4.614806935696905],[96.980689583707047,4.612221486426495],[96.981186785489811,4.609337716086423],[96.98327503297746,4.608343312520881],[96.986954326169965,4.604564578971821],[96.988445931518271,4.60406737718905],[96.990235857936256,4.604465138615267],[96.991727463284562,4.604365698258713],[96.993219068632882,4.602277450771075],[96.993020187919768,4.600089762926882],[96.995605637190181,4.594620543316401],[96.997097242538487,4.593725580107413],[96.996401160042609,4.590941250123896],[96.993616830059096,4.587361397287944],[96.991130821145234,4.584974828730643],[96.990036977223141,4.58915132370592],[96.988843692944485,4.588654121923149],[96.987550968309293,4.590245167628016],[96.986854885813415,4.590145727271462],[96.987252647239629,4.588753562279703],[96.985959922604422,4.58726195693139],[96.985860482247872,4.583980425165101],[96.98496551903888,4.582787140886451],[96.985462720821644,4.581295535538137],[96.981186785489811,4.579207288050499],[96.978203574793199,4.580500012685704],[96.978700776575963,4.58537259015686],[96.978700776575963,4.58537259015686],[96.977408051940756,4.586168113009293],[96.97422596053103,4.586764755148619],[96.973032676252373,4.58606867265274],[96.974723162313794,4.584974828730643],[96.973828199104801,4.58417930587821],[96.974325400887579,4.582488819816788],[96.972833795539259,4.581394975894692],[96.96716569521567,4.582091058390572],[96.96716569521567,4.583980425165101],[96.965276328441149,4.584378186591318],[96.964679686301821,4.582588260173343],[96.961795915961744,4.582687700529896],[96.956525577064369,4.583682104095439],[96.956823898134033,4.588952442992811],[96.955630613855391,4.589250764062474],[96.954636210289848,4.592930057254979],[96.951752439949772,4.596112148664714],[96.949166990679359,4.596211589021268],[96.947078743191724,4.593725580107413],[96.94499049570409,4.592532295828763],[96.94349889035577,4.591140130837004],[96.941311202511585,4.594521102959847],[96.938626312884622,4.594620543316401],[96.937532468962516,4.594023901177076],[96.93594142325766,4.593924460820522],[96.934449817909339,4.59412334153363],[96.932560451134819,4.593228378324643],[96.92878171758575,4.593427259037751],[96.9286822772292,4.595018304742618],[96.928284515802986,4.595714387238497],[96.925997387602237,4.594322222246738],[96.924008580471153,4.591935653689437],[96.916152792303365,4.594222781890184],[96.914760627311608,4.599294240074449],[96.910269056733469,4.597252815362758],[96.910269056733469,4.597252815362758],[96.907072783018151,4.599992478547319],[96.904618501415314,4.599250486434834],[96.901479304016334,4.601476462772291],[96.899709938209639,4.601590615404981],[96.898283030301016,4.603017523313607],[96.895543367116446,4.602732141731882],[96.892860780248228,4.605300575967408],[96.891890482870366,4.604672736487613],[96.888865438104077,4.605700110181823],[96.884470561745516,4.604159049640507],[96.882701195938822,4.606156720712583],[96.877621403784104,4.605643033865478],[96.876708182722581,4.606898712825069],[96.873968519538025,4.606670407559689],[96.871343008986159,4.605414728600098],[96.869345337914083,4.603702439109747],[96.867575972107375,4.604101973324163],[96.86580660630068,4.605072270702028],[96.863124019432462,4.604615660171268],[96.862667408901714,4.605129347018373],[96.861925416789219,4.607127018090449],[96.862496179952672,4.60895346021349],[96.864836308922818,4.610323291805772],[96.863808935228604,4.612720497092263],[96.860669737829625,4.614775244480684],[96.856560243052783,4.616944144501796],[96.853535198286508,4.617514907665246],[96.849939390356766,4.617229526083521],[96.851080916683671,4.617971518196007],[96.855475793042231,4.618770586624837],[96.855475793042231,4.618770586624837],[96.857016853583545,4.626590041964107],[96.857016853583545,4.626590041964107],[96.857944480095114,4.632569954784511],[96.858360245363059,4.633431182839523],[96.859637238686005,4.635034848872992],[96.861478484872578,4.635242731506961],[96.862346304037089,4.637254531685914],[96.862919498103338,4.639117412401235],[96.864495781785536,4.640423021107699],[96.866052626710712,4.641928378786942],[96.867430908598976,4.642489595364199],[96.868498017492129,4.642421868522429],[96.868768459537861,4.642549288332435],[96.870101914826265,4.641991836387836],[96.870592854008905,4.641565738229315],[96.871396335956973,4.640574454329181]]]]}}
]
}
